{
  "norad_id": 63667,
  "name": "STARLINK-11666 [DTC]",
  "history": [
    {
      "epoch": "2026-03-28T22:20:59.710560",
      "apogee_km": 358.2444041212166,
      "perigee_km": 354.4124932809045,
      "latitude_deg": 22.059720405017618,
      "longitude_deg": -83.90032160002738,
      "semi_major_axis_km": 6734.46544870106,
      "eccentricity": 0.0002845,
      "inclination_deg": 43.0001,
      "raan_deg": 162.8286,
      "arg_perigee_deg": 63.9236,
      "mean_anomaly_deg": 296.1924,
      "mean_motion_rev_day": 15.70898295
    }
  ]
}